{
  "type": "FeatureCollection",
  "features": [
    {
      "type": "Feature",
      "properties": {
        "norad_id": 62006,
        "name": "OPTUS-X (ADS-01)",
        "group": "active",
        "lat": NaN,
        "lon": NaN,
        "alt_km": NaN,
        "timestamp": "2025-12-01T03:08:33.391429+00:00",
        "meta": {
          "OBJECT_NAME": "OPTUS-X (ADS-01)",
          "OBJECT_ID": "2024-212A",
          "EPOCH": "2025-11-30T19:48:38.708064",
          "MEAN_MOTION": 1.00271455,
          "ECCENTRICITY": 0.0001389,
          "INCLINATION": 0.0142,
          "RA_OF_ASC_NODE": 312.5288,
          "ARG_OF_PERICENTER": 290.988,
          "MEAN_ANOMALY": 263.2269,
          "EPHEMERIS_TYPE": 0,
          "CLASSIFICATION_TYPE": "U",
          "NORAD_CAT_ID": 62006,
          "ELEMENT_SET_NO": 999,
          "REV_AT_EPOCH": 377,
          "BSTAR": 0,
          "MEAN_MOTION_DOT": -2.61e-06,
          "MEAN_MOTION_DDOT": 0
        }
      },
      "geometry": {
        "type": "Point",
        "coordinates": [
          NaN,
          NaN
        ]
      }
    },
    {
      "type": "Feature",
      "properties": {
        "norad_id": 62028,
        "name": "GSAT-N2 (GSAT-20)",
        "group": "active",
        "lat": NaN,
        "lon": NaN,
        "alt_km": NaN,
        "timestamp": "2025-12-01T03:08:33.391839+00:00",
        "meta": {
          "OBJECT_NAME": "GSAT-N2 (GSAT-20)",
          "OBJECT_ID": "2024-214A",
          "EPOCH": "2025-11-30T19:18:16.626240",
          "MEAN_MOTION": 1.00272986,
          "ECCENTRICITY": 0.0003164,
          "INCLINATION": 0.0119,
          "RA_OF_ASC_NODE": 348.7222,
          "ARG_OF_PERICENTER": 310.309,
          "MEAN_ANOMALY": 128.4811,
          "EPHEMERIS_TYPE": 0,
          "CLASSIFICATION_TYPE": "U",
          "NORAD_CAT_ID": 62028,
          "ELEMENT_SET_NO": 999,
          "REV_AT_EPOCH": 390,
          "BSTAR": 0,
          "MEAN_MOTION_DOT": 0,
          "MEAN_MOTION_DDOT": 0
        }
      },
      "geometry": {
        "type": "Point",
        "coordinates": [
          NaN,
          NaN
        ]
      }
    },
    {
      "type": "Feature",
      "properties": {
        "norad_id": 62079,
        "name": "SUPERVIEW NEO-2 03",
        "group": "active",
        "lat": NaN,
        "lon": NaN,
        "alt_km": NaN,
        "timestamp": "2025-12-01T03:08:33.392249+00:00",
        "meta": {
          "OBJECT_NAME": "SUPERVIEW NEO-2 03",
          "OBJECT_ID": "2024-218B",
          "EPOCH": "2025-11-30T15:57:21.995424",
          "MEAN_MOTION": 15.19722872,
          "ECCENTRICITY": 0.0001616,
          "INCLINATION": 97.4389,
          "RA_OF_ASC_NODE": 339.8493,
          "ARG_OF_PERICENTER": 92.6893,
          "MEAN_ANOMALY": 267.4526,
          "EPHEMERIS_TYPE": 0,
          "CLASSIFICATION_TYPE": "U",
          "NORAD_CAT_ID": 62079,
          "ELEMENT_SET_NO": 999,
          "REV_AT_EPOCH": 5629,
          "BSTAR": 0.00014618,
          "MEAN_MOTION_DOT": 3.055e-05,
          "MEAN_MOTION_DDOT": 0
        }
      },
      "geometry": {
        "type": "Point",
        "coordinates": [
          NaN,
          NaN
        ]
      }
    },
    {
      "type": "Feature",
      "properties": {
        "norad_id": 62080,
        "name": "SUPERVIEW NEO-2 04",
        "group": "active",
        "lat": NaN,
        "lon": NaN,
        "alt_km": NaN,
        "timestamp": "2025-12-01T03:08:33.392257+00:00",
        "meta": {
          "OBJECT_NAME": "SUPERVIEW NEO-2 04",
          "OBJECT_ID": "2024-218C",
          "EPOCH": "2025-11-30T15:57:21.958272",
          "MEAN_MOTION": 15.19722589,
          "ECCENTRICITY": 0.0001324,
          "INCLINATION": 97.4387,
          "RA_OF_ASC_NODE": 339.8543,
          "ARG_OF_PERICENTER": 111.1607,
          "MEAN_ANOMALY": 248.9769,
          "EPHEMERIS_TYPE": 0,
          "CLASSIFICATION_TYPE": "U",
          "NORAD_CAT_ID": 62080,
          "ELEMENT_SET_NO": 999,
          "REV_AT_EPOCH": 5629,
          "BSTAR": 0.00014521,
          "MEAN_MOTION_DOT": 3.034e-05,
          "MEAN_MOTION_DDOT": 0
        }
      },
      "geometry": {
        "type": "Point",
        "coordinates": [
          NaN,
          NaN
        ]
      }
    },
    {
      "type": "Feature",
      "properties": {
        "norad_id": 62081,
        "name": "KINEIS-5C",
        "group": "active",
        "lat": NaN,
        "lon": NaN,
        "alt_km": NaN,
        "timestamp": "2025-12-01T03:08:33.392262+00:00",
        "meta": {
          "OBJECT_NAME": "KINEIS-5C",
          "OBJECT_ID": "2024-219A",
          "EPOCH": "2025-11-30T21:13:45.813792",
          "MEAN_MOTION": 14.72337293,
          "ECCENTRICITY": 4.31e-05,
          "INCLINATION": 97.9856,
          "RA_OF_ASC_NODE": 133.0697,
          "ARG_OF_PERICENTER": 328.1675,
          "MEAN_ANOMALY": 31.9506,
          "EPHEMERIS_TYPE": 0,
          "CLASSIFICATION_TYPE": "U",
          "NORAD_CAT_ID": 62081,
          "ELEMENT_SET_NO": 999,
          "REV_AT_EPOCH": 5457,
          "BSTAR": 0.00016326,
          "MEAN_MOTION_DOT": 9.84e-06,
          "MEAN_MOTION_DDOT": 0
        }
      },
      "geometry": {
        "type": "Point",
        "coordinates": [
          NaN,
          NaN
        ]
      }
    },
    {
      "type": "Feature",
      "properties": {
        "norad_id": 62082,
        "name": "KINEIS-5D",
        "group": "active",
        "lat": NaN,
        "lon": NaN,
        "alt_km": NaN,
        "timestamp": "2025-12-01T03:08:33.392269+00:00",
        "meta": {
          "OBJECT_NAME": "KINEIS-5D",
          "OBJECT_ID": "2024-219B",
          "EPOCH": "2025-11-30T15:30:59.638176",
          "MEAN_MOTION": 14.72331229,
          "ECCENTRICITY": 5.26e-05,
          "INCLINATION": 97.986,
          "RA_OF_ASC_NODE": 132.9054,
          "ARG_OF_PERICENTER": 256.2346,
          "MEAN_ANOMALY": 103.8803,
          "EPHEMERIS_TYPE": 0,
          "CLASSIFICATION_TYPE": "U",
          "NORAD_CAT_ID": 62082,
          "ELEMENT_SET_NO": 999,
          "REV_AT_EPOCH": 5454,
          "BSTAR": 1.8638e-05,
          "MEAN_MOTION_DOT": 6.9e-07,
          "MEAN_MOTION_DDOT": 0
        }
      },
      "geometry": {
        "type": "Point",
        "coordinates": [
          NaN,
          NaN
        ]
      }
    },
    {
      "type": "Feature",
      "properties": {
        "norad_id": 62083,
        "name": "KINEIS-5E",
        "group": "active",
        "lat": NaN,
        "lon": NaN,
        "alt_km": NaN,
        "timestamp": "2025-12-01T03:08:33.392275+00:00",
        "meta": {
          "OBJECT_NAME": "KINEIS-5E",
          "OBJECT_ID": "2024-219C",
          "EPOCH": "2025-11-30T20:48:44.438400",
          "MEAN_MOTION": 14.72334656,
          "ECCENTRICITY": 7.23e-05,
          "INCLINATION": 97.9854,
          "RA_OF_ASC_NODE": 133.2385,
          "ARG_OF_PERICENTER": 100.0897,
          "MEAN_ANOMALY": 260.0392,
          "EPHEMERIS_TYPE": 0,
          "CLASSIFICATION_TYPE": "U",
          "NORAD_CAT_ID": 62083,
          "ELEMENT_SET_NO": 999,
          "REV_AT_EPOCH": 5458,
          "BSTAR": 0.00015231,
          "MEAN_MOTION_DOT": 9.14e-06,
          "MEAN_MOTION_DDOT": 0
        }
      },
      "geometry": {
        "type": "Point",
        "coordinates": [
          NaN,
          NaN
        ]
      }
    },
    {
      "type": "Feature",
      "properties": {
        "norad_id": 62084,
        "name": "KINEIS-5A",
        "group": "active",
        "lat": NaN,
        "lon": NaN,
        "alt_km": NaN,
        "timestamp": "2025-12-01T03:08:33.392280+00:00",
        "meta": {
          "OBJECT_NAME": "KINEIS-5A",
          "OBJECT_ID": "2024-219D",
          "EPOCH": "2025-11-30T20:00:01.174752",
          "MEAN_MOTION": 14.72344923,
          "ECCENTRICITY": 0.0001808,
          "INCLINATION": 97.9857,
          "RA_OF_ASC_NODE": 133.2974,
          "ARG_OF_PERICENTER": 182.0627,
          "MEAN_ANOMALY": 178.0573,
          "EPHEMERIS_TYPE": 0,
          "CLASSIFICATION_TYPE": "U",
          "NORAD_CAT_ID": 62084,
          "ELEMENT_SET_NO": 999,
          "REV_AT_EPOCH": 5458,
          "BSTAR": 0.00015357,
          "MEAN_MOTION_DOT": 9.22e-06,
          "MEAN_MOTION_DDOT": 0
        }
      },
      "geometry": {
        "type": "Point",
        "coordinates": [
          NaN,
          NaN
        ]
      }
    },
    {
      "type": "Feature",
      "properties": {
        "norad_id": 62085,
        "name": "KINEIS-5B",
        "group": "active",
        "lat": NaN,
        "lon": NaN,
        "alt_km": NaN,
        "timestamp": "2025-12-01T03:08:33.392285+00:00",
        "meta": {
          "OBJECT_NAME": "KINEIS-5B",
          "OBJECT_ID": "2024-219E",
          "EPOCH": "2025-11-30T21:25:48.028800",
          "MEAN_MOTION": 14.77563855,
          "ECCENTRICITY": 0.0002127,
          "INCLINATION": 97.9844,
          "RA_OF_ASC_NODE": 135.2199,
          "ARG_OF_PERICENTER": 158.0396,
          "MEAN_ANOMALY": 202.0906,
          "EPHEMERIS_TYPE": 0,
          "CLASSIFICATION_TYPE": "U",
          "NORAD_CAT_ID": 62085,
          "ELEMENT_SET_NO": 999,
          "REV_AT_EPOCH": 5471,
          "BSTAR": 0.00029602,
          "MEAN_MOTION_DOT": 2.063e-05,
          "MEAN_MOTION_DDOT": 0
        }
      },
      "geometry": {
        "type": "Point",
        "coordinates": [
          NaN,
          NaN
        ]
      }
    }
  ]
}